NORAD_CAT_ID,OBJECT_NAME,OBJECT_TYPE,EPOCH,MEAN_MOTION,ECCENTRICITY,INCLINATION,RA_OF_ASC_NODE,ARG_OF_PERICENTER,MEAN_ANOMALY,BSTAR,MEAN_MOTION_DOT,MEAN_MOTION_DDOT,TLE_LINE0,TLE_LINE1,TLE_LINE2,SEMIMAJOR_AXIS,PERIOD,APOGEE,PERIGEE,DECAYED
52494.0,STARLINK-3857,PAYLOAD,2022-07-18 22:00:00,15.57954601,0.0001464,53.2175,262.932,43.4378,229.3472,-0.015395,-0.01066454,0.0,0 STARLINK-3857,1 52494U 22049AV  22199.91667824 -.01066454  00000-0 -15395-1 0  9999,2 52494  53.2175 262.9320 0001464  43.4378 229.3472 15.57954601  1303,6771.715,92.429,394.571,392.588,0.0
52494.0,STARLINK-3857,PAYLOAD,2022-07-19 14:00:01,15.56431677,0.0001635,53.2175,259.7205,33.8485,18.3038,-0.016188,-0.01059599,0.0,0 STARLINK-3857,1 52494U 22049AV  22200.58334491 -.01059599  00000-0 -16188-1 0  9999,2 52494  53.2175 259.7205 0001635  33.8485  18.3038 15.56431677 11847,6776.130999999999,92.519,399.104,396.888,0.0
52494.0,STARLINK-3857,PAYLOAD,2022-07-19 22:00:00,15.55672485,0.0001499,53.2176,258.1147,44.0275,76.4402,-0.016655,-0.01059655,0.0,0 STARLINK-3857,1 52494U 22049AV  22200.91667824 -.01059655  00000-0 -16655-1 0  9997,2 52494  53.2176 258.1147 0001499  44.0275  76.4402 15.55672485  1308,6778.3359999999975,92.564,401.217,399.184,0.0
52494.0,STARLINK-3857,PAYLOAD,2022-07-20 06:00:00,15.54912756,0.0001710999999999,53.2178,256.5129,41.5148,146.3544,-0.017116,-0.01058858,0.0,0 STARLINK-3857,1 52494U 22049AV  22201.25001157 -.01058858  00000-0 -17116-1 0  9993,2 52494  53.2178 256.5129 0001711  41.5148 146.3544 15.54912756 11942,6780.543000000002,92.61,403.568,401.24800000000016,0.0
52494.0,STARLINK-3857,PAYLOAD,2022-07-20 14:00:01,15.54151589,0.0001419,53.2176,254.9142,52.7399,201.618,-0.017546,-0.01055626,0.0,0 STARLINK-3857,1 52494U 22049AV  22201.58334491 -.01055626  00000-0 -17546-1 0  9996,2 52494  53.2176 254.9142 0001419  52.7399 201.6180 15.54151589  1303,6782.757,92.655,405.584,403.66,0.0
52494.0,STARLINK-3857,PAYLOAD,2022-07-20 22:00:01,15.53395599,0.0001462,53.2177,253.3138,39.0955,280.9038,-0.018159,-0.01062009,0.0,0 STARLINK-3857,1 52494U 22049AV  22201.91668981 -.01062009  00000-0 -18159-1 0  9991,2 52494  53.2177 253.3138 0001462  39.0955 280.9038 15.53395599  1308,6784.956999999999,92.7,407.814,405.83,0.0
52494.0,STARLINK-3857,PAYLOAD,2022-07-21 06:00:00,15.52636909,0.00016,53.2177,251.7178,33.8028,350.7948,-0.018684,-0.01062852,0.0,0 STARLINK-3857,1 52494U 22049AV  22202.25001157 -.01062852  00000-0 -18684-1 0  9994,2 52494  53.2177 251.7178 0001600  33.8028 350.7948 15.52636909 12109,6787.168000000002,92.745,410.119,407.947,0.0
52494.0,STARLINK-3857,PAYLOAD,2022-07-21 14:00:01,15.5187201,0.0001518,53.2174,250.1243,41.4971,46.9175,-0.019028,-0.01053687,0.0,0 STARLINK-3857,1 52494U 22049AV  22202.58335648 -.01053687  00000-0 -19028-1 0  9994,2 52494  53.2174 250.1243 0001518  41.4971  46.9175 15.51872010  1302,6789.398,92.791,412.293,410.232,0.0
52494.0,STARLINK-3857,PAYLOAD,2022-07-21 22:00:00,15.51108264,0.0001465,53.2175,248.5289,41.1562,110.0346,-0.01939,-0.01045369,0.0,0 STARLINK-3857,1 52494U 22049AV  22202.91667824 -.01045369  00000-0 -19390-1 0  9995,2 52494  53.2175 248.5289 0001465  41.1562 110.0346 15.51108264  1304,6791.626,92.837,414.486,412.496,0.0
52494.0,STARLINK-3857,PAYLOAD,2022-07-22 06:00:00,15.50253832,0.0001641999999999,53.2175,246.9364,32.9632,180.1617,-0.0086075,-0.00467047,0.0,0 STARLINK-3857,1 52494U 22049AV  22203.25001157 -.00467047  00000-0 -86075-2 0  9999,2 52494  53.2175 246.9364 0001642  32.9632 180.1617 15.50253832  1303,6794.121,92.888,417.102,414.871,0.0
52494.0,STARLINK-3857,PAYLOAD,2022-07-22 12:00:00,15.49887721,0.0001709,53.2175,245.743,34.1395,134.9075,-8.195899999999999e-05,-5.101e-05,0.0,0 STARLINK-3857,1 52494U 22049AV  22203.50001157 -.00005101  00000-0 -81959-4 0  9994,2 52494  53.2175 245.7430 0001709  34.1395 134.9075 15.49887721 12291,6795.191,92.91,418.218,415.895,0.0
52494.0,STARLINK-3857,PAYLOAD,2022-07-22 22:00:00,15.4988402,0.0001371,53.2174,243.7498,53.1305,282.0618,4.169100000000001e-05,1.915e-05,0.0,0 STARLINK-3857,1 52494U 22049AV  22203.91667824  .00001915  00000-0  41691-4 0  9994,2 52494  53.2174 243.7498 0001371  53.1305 282.0618 15.49884020  1306,6795.2019999999975,92.91,417.999,416.135,0.0
52494.0,STARLINK-3857,PAYLOAD,2022-07-23 08:00:01,15.49951641,0.0001695,53.2159,241.7492,40.5772,100.8625,-0.0019219999999999,-0.00108299,0.0,0 STARLINK-3857,1 52494U 22049AV  22204.33334491 -.00108299  00000-0 -19220-2 0  9998,2 52494  53.2159 241.7492 0001695  40.5772 100.8625 15.49951641 12422,6795.004,92.906,418.021,415.718,0.0
52494.0,STARLINK-3857,PAYLOAD,2022-07-23 14:00:01,15.49831353,0.0001718,53.2155,240.5535,32.1685,65.007,0.00084016,0.00047431,0.0,0 STARLINK-3857,1 52494U 22049AV  22204.58335648  .00047431  00000-0  84016-3 0  9994,2 52494  53.2155 240.5535 0001718  32.1685  65.0070 15.49831353  1307,6795.356,92.913,418.388,416.054,0.0
52494.0,STARLINK-3857,PAYLOAD,2022-07-23 16:00:00,15.49859289,0.0001688,53.2157,240.1568,32.6577,169.66099999999997,-6.3325e-05,-4.041e-05,0.0,0 STARLINK-3857,1 52494U 22049AV  22204.66667824 -.00004041  00000-0 -63325-4 0  9990,2 52494  53.2157 240.1568 0001688  32.6577 169.6610 15.49859289 12471,6795.274,92.912,418.286,415.992,0.0
52494.0,STARLINK-3857,PAYLOAD,2022-07-23 22:00:00,15.4983941,0.0001518,53.2162,238.9588,35.6773,122.3068,0.00081912,0.00046238,0.0,0 STARLINK-3857,1 52494U 22049AV  22204.91667824  .00046238  00000-0  81912-3 0  9991,2 52494  53.2162 238.9588 0001518  35.6773 122.3068 15.49839410  1304,6795.331999999999,92.913,418.229,416.166,0.0
52494.0,STARLINK-3857,PAYLOAD,2022-07-24 14:00:01,15.49856684,0.0001873,53.2169,235.7804,33.0897,246.6561,0.00069581,0.00039198,0.0,0 STARLINK-3857,1 52494U 22049AV  22205.58334491  .00039198  00000-0  69581-3 0  9991,2 52494  53.2169 235.7804 0001873  33.0897 246.6561 15.49856684  1300,6795.281999999997,92.912,418.42,415.874,0.0
52494.0,STARLINK-3857,PAYLOAD,2022-07-24 22:00:00,15.50047708,0.0001759,53.2174,234.1913,31.8897,308.7271,-0.0143889999999999,-0.00757707,0.0,0 STARLINK-3857,1 52494U 22049AV  22205.91667824 -.00757707  00000-0 -14389-1 0  9996,2 52494  53.2174 234.1913 0001759  31.8897 308.7271 15.50047708  1308,6794.724,92.9,417.784,415.393,0.0
52494.0,STARLINK-3857,PAYLOAD,2022-07-25 06:00:00,15.49522698,0.0001855,53.2177,232.6059,28.0526,13.3496,-0.020832,-0.01059905,0.0,0 STARLINK-3857,1 52494U 22049AV  22206.25001157 -.01059905  00000-0 -20832-1 0  9991,2 52494  53.2177 232.6059 0001855  28.0526  13.3496 15.49522698 12729,6796.2580000000025,92.932,419.384,416.86300000000006,0.0
52494.0,STARLINK-3857,PAYLOAD,2022-07-25 14:00:01,15.48761987,0.0001644,53.2172,231.0192,38.2802,63.1325,-0.021338,-0.01056999,0.0,0 STARLINK-3857,1 52494U 22049AV  22206.58334491 -.01056999  00000-0 -21338-1 0  9999,2 52494  53.2172 231.0192 0001644  38.2802  63.1325 15.48761987  1302,6798.484,92.977,421.466,419.231,0.0
52494.0,STARLINK-3857,PAYLOAD,2022-07-25 22:00:00,15.48001424,0.0001709,53.2174,229.432,39.1487,121.3635,-0.021891,-0.01055847,0.0,0 STARLINK-3857,1 52494U 22049AV  22206.91667824 -.01055847  00000-0 -21891-1 0  9990,2 52494  53.2174 229.4320 0001709  39.1487 121.3635 15.48001424  1303,6800.71,93.023,423.737,421.413,0.0
52494.0,STARLINK-3857,PAYLOAD,2022-07-26 06:00:00,15.47241149,0.0001738,53.2175,227.8496,41.8451,176.8517,-0.022441,-0.01054098,0.0,0 STARLINK-3857,1 52494U 22049AV  22207.25001157 -.01054098  00000-0 -22441-1 0  9998,2 52494  53.2175 227.8496 0001738  41.8451 176.8517 15.47241149 12870,6802.938,93.069,425.985,423.62,0.0
52494.0,STARLINK-3857,PAYLOAD,2022-07-26 14:00:01,15.4648494,0.0001506,53.2171,226.2682,44.0793,231.8884,-0.023153,-0.01058715,0.0,0 STARLINK-3857,1 52494U 22049AV  22207.58334491 -.01058715  00000-0 -23153-1 0  9995,2 52494  53.2171 226.2682 0001506  44.0793 231.8884 15.46484940  1305,6805.155,93.114,428.045,425.996,0.0
52494.0,STARLINK-3857,PAYLOAD,2022-07-26 22:00:00,15.45722074,0.0001475,53.2174,224.6864,39.028,293.3023,-0.023662,-0.01054193,0.0,0 STARLINK-3857,1 52494U 22049AV  22207.91667824 -.01054193  00000-0 -23662-1 0  9992,2 52494  53.2174 224.6864 0001475  39.0280 293.3023 15.45722074  1302,6807.394,93.16,430.263,428.255,0.0
52494.0,STARLINK-3857,PAYLOAD,2022-07-27 14:00:01,15.44204854,0.0001696999999999,53.2172,221.5336,35.1729,47.1372,-0.024968,-0.01055732,0.0,0 STARLINK-3857,1 52494U 22049AV  22208.58334491 -.01055732  00000-0 -24968-1 0  9997,2 52494  53.2172 221.5336 0001697  35.1729  47.1372 15.44204854  1303,6811.852,93.252,434.87300000000016,432.561,0.0
52494.0,STARLINK-3857,PAYLOAD,2022-07-27 16:00:00,15.44015682,0.0001709,53.2175,221.1392,41.8331,143.9685,-0.025181,-0.0105767999999999,0.0,0 STARLINK-3857,1 52494U 22049AV  22208.66667824 -.01057680  00000-0 -25181-1 0  9997,2 52494  53.2175 221.1392 0001709  41.8331 143.9685 15.44015682 13091,6812.409000000002,93.263,435.43800000000016,433.11,0.0
52494.0,STARLINK-3857,PAYLOAD,2022-07-27 22:00:00,15.4344519,0.0001766999999999,53.2174,219.9572,37.0979,98.8357,-0.025649,-0.010567,0.0,0 STARLINK-3857,1 52494U 22049AV  22208.91667824 -.01056700  00000-0 -25649-1 0  9996,2 52494  53.2174 219.9572 0001767  37.0979  98.8357 15.43445190  1309,6814.087,93.298,437.156,434.74800000000016,0.0
52494.0,STARLINK-3857,PAYLOAD,2022-07-28 14:00:01,15.41928095,0.0001626999999999,53.2172,216.8152,44.0621,196.3753,-0.027061,-0.01073701,0.0,0 STARLINK-3857,1 52494U 22049AV  22209.58334491 -.01073701  00000-0 -27061-1 0  9991,2 52494  53.2172 216.8152 0001627  44.0621 196.3753 15.41928095  1306,6818.556,93.39,441.531,439.312,0.0
52494.0,STARLINK-3857,PAYLOAD,2022-07-28 22:00:00,15.41164871,0.0001462,53.2174,215.2442,46.7494,244.5745,-0.027598,-0.01067793,0.0,0 STARLINK-3857,1 52494U 22049AV  22209.91667824 -.01067793  00000-0 -27598-1 0  9996,2 52494  53.2174 215.2442 0001462  46.7494 244.5745 15.41164871  1308,6820.807,93.436,443.669,441.675,0.0
